{"epoch":1784762836,"count":18316,"objects":[{"id":"54140","name":"ONEWEB-0522","type":"PAYLOAD","l1":"1 54140U 22138AD  26203.54891718  .00000019  00000-0  15525-4 0  9998","l2":"2 54140  87.9192 297.9195 0002018 105.2999 254.8357 13.19723918181479"},{"id":"54141","name":"ONEWEB-0523","type":"PAYLOAD","l1":"1 54141U 22138AE  26203.18046550 -.00000011  00000-0 -59327-4 0  9997","l2":"2 54141  87.9178 267.4678 0002039  74.8950 285.2409 13.20769874183924"},{"id":"54142","name":"ONEWEB-0524","type":"PAYLOAD","l1":"1 54142U 22138AF  26203.17036817 -.00000164  00000-0 -43471-3 0  9993","l2":"2 54142  87.9181 267.4668 0002657  84.7569 275.3867 13.20770738183929"},{"id":"54143","name":"ONEWEB-0525","type":"PAYLOAD","l1":"1 54143U 22138AG  26203.49205766 -.00000018  00000-0 -77392-4 0  9998","l2":"2 54143  87.9192 297.9377 0002308 107.2607 252.8778 13.19723904181485"},{"id":"54144","name":"ONEWEB-0526","type":"PAYLOAD","l1":"1 54144U 22138AH  26203.52522816  .00000106  00000-0  23260-3 0  9991","l2":"2 54144  87.9189 297.9314 0002188 101.6921 258.4458 13.19725391181463"},{"id":"54145","name":"ONEWEB-0529","type":"PAYLOAD","l1":"1 54145U 22138AJ  26203.30093728  .00000026  00000-0  33404-4 0  9996","l2":"2 54145  87.9183 297.9828 0002179 105.2804 254.8569 13.19726342181457"},{"id":"54146","name":"ONEWEB-0531","type":"PAYLOAD","l1":"1 54146U 22138AK  26203.23265138 -.00000065  00000-0 -19141-3 0  9991","l2":"2 54146  87.9178 267.4516 0002300  75.8372 284.3017 13.20769410183932"},{"id":"54147","name":"ONEWEB-0535","type":"PAYLOAD","l1":"1 54147U 22138AL  26203.56154687 -.00000030  00000-0 -10626-3 0  9995","l2":"2 54147  87.9195 297.9180 0001867  91.4060 268.7286 13.19723648181508"},{"id":"54148","name":"ONEWEB-0536","type":"PAYLOAD","l1":"1 54148U 22138AM  26203.44645411  .00000121  00000-0  26656-3 0  9992","l2":"2 54148  87.9163 267.4273 0002502  74.7599 285.3811 13.20770625183956"},{"id":"54642","name":"ONEWEB-0527","type":"PAYLOAD","l1":"1 54642U 22166A   26203.14837338 -.00000125  00000-0 -33345-3 0  9999","l2":"2 54642  87.9224 237.0378 0002060  97.4587 262.6781 13.21827524176150"},{"id":"54643","name":"ONEWEB-0528","type":"PAYLOAD","l1":"1 54643U 22166B   26203.37630542 -.00005020  00000-0 -12189-1 0  9993","l2":"2 54643  87.9227 236.9954 0002170 102.6443 257.4934 13.21850684176193"},{"id":"54644","name":"ONEWEB-0539","type":"PAYLOAD","l1":"1 54644U 22166C   26203.56555494  .00000021  00000-0  20394-4 0  9991","l2":"2 54644  87.9234 236.9316 0001862  97.2180 262.9166 13.21824400176216"},{"id":"54645","name":"ONEWEB-0540","type":"PAYLOAD","l1":"1 54645U 22166D   26203.34533371  .00000049  00000-0  87146-4 0  9996","l2":"2 54645  87.9229 237.0037 0001980  95.3040 264.8320 13.21825045176172"},{"id":"54646","name":"ONEWEB-0542","type":"PAYLOAD","l1":"1 54646U 22166E   26203.34856391  .00000023  00000-0  23999-4 0  9995","l2":"2 54646  87.9239 236.9745 0001779  97.4325 262.7011 13.21825536176183"},{"id":"54647","name":"ONEWEB-0545","type":"PAYLOAD","l1":"1 54647U 22166F   26203.54030703  .00000709  00000-0  16840-2 0  9995","l2":"2 54647  87.9275 236.9471 0001867  77.6985 282.4358 13.21834327176170"},{"id":"54648","name":"ONEWEB-0580","type":"PAYLOAD","l1":"1 54648U 22166G   26203.51508628  .00000075  00000-0  14896-3 0  9995","l2":"2 54648  87.9226 236.9497 0001677  89.0090 271.1236 13.21824003176213"},{"id":"54649","name":"ONEWEB-0582","type":"PAYLOAD","l1":"1 54649U 22166H   26203.55713310 -.00000044  00000-0 -13816-3 0  9995","l2":"2 54649  87.9233 236.9342 0001561  94.8701 265.2612 13.21824293176196"},{"id":"54650","name":"ONEWEB-0583","type":"PAYLOAD","l1":"1 54650U 22166J   26203.49322825  .00000031  00000-0  44000-4 0  9991","l2":"2 54650  87.9233 236.9706 0001920  94.7711 265.3643 13.21826196176190"},{"id":"54651","name":"ONEWEB-0584","type":"PAYLOAD","l1":"1 54651U 22166K   26203.51340783  .00000036  00000-0  55268-4 0  9991","l2":"2 54651  87.9225 236.9508 0002005  93.2277 266.9086 13.21824833176181"},{"id":"54652","name":"ONEWEB-0585","type":"PAYLOAD","l1":"1 54652U 22166L   26203.53695235  .00000041  00000-0  66768-4 0  9992","l2":"2 54652  87.9230 236.9343 0002204  96.2746 263.8639 13.21824456176192"},{"id":"54653","name":"ONEWEB-0586","type":"PAYLOAD","l1":"1 54653U 22166M   26203.32332469 -.00000093  00000-0 -25634-3 0  9992","l2":"2 54653  87.9229 237.0025 0001922  96.6850 263.4503 13.21824763176160"},{"id":"54654","name":"ONEWEB-0587","type":"PAYLOAD","l1":"1 54654U 22166N   26203.18202637  .00000959  00000-0  22910-2 0  9992","l2":"2 54654  87.9234 237.0071 0003639 112.6986 247.4533 13.21833467176306"},{"id":"54655","name":"ONEWEB-0589","type":"PAYLOAD","l1":"1 54655U 22166P   26203.54705688 -.00000100  00000-0 -27456-3 0  9998","l2":"2 54655  87.9227 236.9423 0001207  86.8903 273.2369 13.21826172176217"},{"id":"54656","name":"ONEWEB-0590","type":"PAYLOAD","l1":"1 54656U 22166Q   26203.49643660  .00000044  00000-0  74292-4 0  9990","l2":"2 54656  87.9237 236.9460 0002123  82.8705 277.2671 13.21826623176192"},{"id":"54657","name":"ONEWEB-0591","type":"PAYLOAD","l1":"1 54657U 22166R   26203.50835069  .00000033  00000-0  47579-4 0  9995","l2":"2 54657  87.9229 236.9555 0002037  93.3386 266.7981 13.21823899176228"},{"id":"54658","name":"ONEWEB-0592","type":"PAYLOAD","l1":"1 54658U 22166S   26203.51172626  .00000069  00000-0  13667-3 0  9999","l2":"2 54658  87.9236 236.9361 0002038  95.9759 264.1607 13.21825207176104"},{"id":"54659","name":"ONEWEB-0593","type":"PAYLOAD","l1":"1 54659U 22166T   26203.53359043 -.00000005  00000-0 -43093-4 0  9991","l2":"2 54659  87.9226 236.9406 0001922  98.6655 261.4696 13.21826288176210"},{"id":"54660","name":"ONEWEB-0594","type":"PAYLOAD","l1":"1 54660U 22166U   26203.32669081  .00000045  00000-0  76610-4 0  9999","l2":"2 54660  87.9228 236.9978 0002217  97.5983 262.5403 13.21825048176208"},{"id":"54661","name":"ONEWEB-0595","type":"PAYLOAD","l1":"1 54661U 22166V   26203.15175317 -.00000026  00000-0 -95185-4 0  9994","l2":"2 54661  87.9237 237.0162 0002290  93.8042 266.3354 13.21825595176150"},{"id":"54662","name":"ONEWEB-0596","type":"PAYLOAD","l1":"1 54662U 22166W   26203.50499617  .00000057  00000-0  10625-3 0  9993","l2":"2 54662  87.9230 236.9551 0002142  94.8186 265.3192 13.21824342176204"}]}