OBJECT_NAME,OBJECT_ID,EPOCH,MEAN_MOTION,ECCENTRICITY,INCLINATION,RA_OF_ASC_NODE,ARG_OF_PERICENTER,MEAN_ANOMALY,EPHEMERIS_TYPE,CLASSIFICATION_TYPE,NORAD_CAT_ID,ELEMENT_SET_NO,REV_AT_EPOCH,BSTAR,MEAN_MOTION_DOT,MEAN_MOTION_DDOT
ONEWEB-0522,2022-138AD,2026-07-22T13:10:26.444352,13.19723918,.00020178,87.9192,297.9195,105.2999,254.8357,0,U,54140,999,18147,.15524847E-4,.19E-6,0
ONEWEB-0523,2022-138AE,2026-07-22T04:19:52.219200,13.20769874,.00020387,87.9178,267.4678,74.8950,285.2409,0,U,54141,999,18392,-.59326806E-4,-.11E-6,0
ONEWEB-0524,2022-138AF,2026-07-22T04:05:19.809888,13.20770738,.0002657,87.9181,267.4668,84.7569,275.3867,0,U,54142,999,18392,-.43470925E-3,-.164E-5,0
ONEWEB-0525,2022-138AG,2026-07-22T11:48:33.781824,13.19723904,.00023076,87.9192,297.9377,107.2607,252.8778,0,U,54143,999,18148,-.77391753E-4,-.18E-6,0
ONEWEB-0526,2022-138AH,2026-07-22T12:36:19.713024,13.19725391,.00021881,87.9189,297.9314,101.6921,258.4458,0,U,54144,999,18146,.23259559E-3,.106E-5,0
ONEWEB-0529,2022-138AJ,2026-07-22T07:13:20.980992,13.19726342,.00021788,87.9183,297.9828,105.2804,254.8569,0,U,54145,999,18145,.33404264E-4,.26E-6,0
ONEWEB-0531,2022-138AK,2026-07-22T05:35:01.079232,13.20769410,.00022999,87.9178,267.4516,75.8372,284.3017,0,U,54146,999,18393,-.19140868E-3,-.65E-6,0
ONEWEB-0535,2022-138AL,2026-07-22T13:28:37.649568,13.19723648,.00018667,87.9195,297.9180,91.4060,268.7286,0,U,54147,999,18150,-.10625733E-3,-.3E-6,0
ONEWEB-0536,2022-138AM,2026-07-22T10:42:53.635104,13.20770625,.00025018,87.9163,267.4273,74.7599,285.3811,0,U,54148,999,18395,.26656191E-3,.121E-5,0
ONEWEB-0527,2022-166A,2026-07-22T03:33:39.460032,13.21827524,.00020605,87.9224,237.0378,97.4587,262.6781,0,U,54642,999,17615,-.33344876E-3,-.125E-5,0
ONEWEB-0528,2022-166B,2026-07-22T09:01:52.788288,13.21850684,.00021702,87.9227,236.9954,102.6443,257.4934,0,U,54643,999,17619,-.12188534E-1,-.502E-4,0
ONEWEB-0539,2022-166C,2026-07-22T13:34:23.946816,13.21824400,.00018618,87.9234,236.9316,97.2180,262.9166,0,U,54644,999,17621,.20394378E-4,.21E-6,0
ONEWEB-0540,2022-166D,2026-07-22T08:17:16.832544,13.21825045,.00019797,87.9229,237.0037,95.3040,264.8320,0,U,54645,999,17617,.87146026E-4,.49E-6,0
ONEWEB-0542,2022-166E,2026-07-22T08:21:55.921824,13.21825536,.00017791,87.9239,236.9745,97.4325,262.7011,0,U,54646,999,17618,.23998503E-4,.23E-6,0
ONEWEB-0545,2022-166F,2026-07-22T12:58:02.527392,13.21834327,.00018667,87.9275,236.9471,77.6985,282.4358,0,U,54647,999,17617,.16839614E-2,.709E-5,0
ONEWEB-0580,2022-166G,2026-07-22T12:21:43.454592,13.21824003,.00016767,87.9226,236.9497,89.0090,271.1236,0,U,54648,999,17621,.14896267E-3,.75E-6,0
ONEWEB-0582,2022-166H,2026-07-22T13:22:16.299840,13.21824293,.00015612,87.9233,236.9342,94.8701,265.2612,0,U,54649,999,17619,-.13816307E-3,-.44E-6,0
ONEWEB-0583,2022-166J,2026-07-22T11:50:14.920800,13.21826196,.00019205,87.9233,236.9706,94.7711,265.3643,0,U,54650,999,17619,.44000201E-4,.31E-6,0
ONEWEB-0584,2022-166K,2026-07-22T12:19:18.436512,13.21824833,.00020051,87.9225,236.9508,93.2277,266.9086,0,U,54651,999,17618,.55267823E-4,.36E-6,0
ONEWEB-0585,2022-166L,2026-07-22T12:53:12.683040,13.21824456,.00022038,87.9230,236.9343,96.2746,263.8639,0,U,54652,999,17619,.66767711E-4,.41E-6,0
ONEWEB-0586,2022-166M,2026-07-22T07:45:35.253216,13.21824763,.00019224,87.9229,237.0025,96.6850,263.4503,0,U,54653,999,17616,-.2563433E-3,-.93E-6,0
ONEWEB-0587,2022-166N,2026-07-22T04:22:07.078368,13.21833467,.00036388,87.9234,237.0071,112.6986,247.4533,0,U,54654,999,17630,.22909769E-2,.959E-5,0
ONEWEB-0589,2022-166P,2026-07-22T13:07:45.714432,13.21826172,.00012068,87.9227,236.9423,86.8903,273.2369,0,U,54655,999,17621,-.27455881E-3,-.1E-5,0
ONEWEB-0590,2022-166Q,2026-07-22T11:54:52.122240,13.21826623,.00021229,87.9237,236.9460,82.8705,277.2671,0,U,54656,999,17619,.74292031E-4,.44E-6,0
ONEWEB-0591,2022-166R,2026-07-22T12:12:01.499616,13.21823899,.00020367,87.9229,236.9555,93.3386,266.7981,0,U,54657,999,17622,.47579402E-4,.33E-6,0
ONEWEB-0592,2022-166S,2026-07-22T12:16:53.148864,13.21825207,.00020384,87.9236,236.9361,95.9759,264.1607,0,U,54658,999,17610,.1366734E-3,.69E-6,0
ONEWEB-0593,2022-166T,2026-07-22T12:48:22.213152,13.21826288,.00019223,87.9226,236.9406,98.6655,261.4696,0,U,54659,999,17621,-.43093115E-4,-.5E-7,0
ONEWEB-0594,2022-166U,2026-07-22T07:50:26.085984,13.21825048,.00022174,87.9228,236.9978,97.5983,262.5403,0,U,54660,999,17620,.76610425E-4,.45E-6,0
ONEWEB-0595,2022-166V,2026-07-22T03:38:31.473888,13.21825595,.000229,87.9237,237.0162,93.8042,266.3354,0,U,54661,999,17615,-.95184771E-4,-.26E-6,0
ONEWEB-0596,2022-166W,2026-07-22T12:07:11.669088,13.21824342,.00021421,87.9230,236.9551,94.8186,265.3192,0,U,54662,999,17620,.1062523E-3,.57E-6,0
